{"type": "FeatureCollection", "features": [ {"type": "Feature", "properties": {"norad_id": 66466, "name": "STARLINK-35388", "group": "last-30-days", "lat": -34.239324557327805, "lon": -3.3864644308097223, "alt_km": 380.64724530080366, "timestamp": "2025-12-02T17:49:10.799552+00:00", "meta": {"OBJECT_NAME": "STARLINK-35388", "OBJECT_ID": "2025-262L", "EPOCH": "2025-12-02T12:00:05.998752", "MEAN_MOTION": 15.6430153, "ECCENTRICITY": 0.0001537, "INCLINATION": 42.999, "RA_OF_ASC_NODE": 131.1392, "ARG_OF_PERICENTER": 267.4632, "MEAN_ANOMALY": 41.8008, "EPHEMERIS_TYPE": 0, "CLASSIFICATION_TYPE": "U", "NORAD_CAT_ID": 66466, "ELEMENT_SET_NO": 999, "REV_AT_EPOCH": 399, "BSTAR": -0.024623, "MEAN_MOTION_DOT": -0.02110804, "MEAN_MOTION_DDOT": 0}, "tle": {"line1": "1 66466U 25262L   25336.50006943 -.02110804  00000+0 -24623-1 0  9996", "line2": "2 66466  42.9990 131.1392 0001537 267.4632  41.8008 15.64301530  3999"}}, "geometry": {"type": "Point", "coordinates": [-3.3864644308097223, -34.239324557327805]}}, {"type": "Feature", "properties": {"norad_id": 66467, "name": "STARLINK-35682", "group": "last-30-days", "lat": -32.38946938994053, "lon": -7.391506927341496, "alt_km": 380.44596094497956, "timestamp": "2025-12-02T17:49:10.799566+00:00", "meta": {"OBJECT_NAME": "STARLINK-35682", "OBJECT_ID": "2025-262M", "EPOCH": "2025-12-02T12:00:05.998752", "MEAN_MOTION": 15.64297668, "ECCENTRICITY": 0.0001717, "INCLINATION": 42.9988, "RA_OF_ASC_NODE": 131.1496, "ARG_OF_PERICENTER": 264.2651, "MEAN_ANOMALY": 41.1663, "EPHEMERIS_TYPE": 0, "CLASSIFICATION_TYPE": "U", "NORAD_CAT_ID": 66467, "ELEMENT_SET_NO": 999, "REV_AT_EPOCH": 399, "BSTAR": -0.024565, "MEAN_MOTION_DOT": -0.0210642, "MEAN_MOTION_DDOT": 0}, "tle": {"line1": "1 66467U 25262M   25336.50006943 -.02106420  00000+0 -24565-1 0  9991", "line2": "2 66467  42.9988 131.1496 0001717 264.2651  41.1663 15.64297668  3994"}}, "geometry": {"type": "Point", "coordinates": [-7.391506927341496, -32.38946938994053]}}, {"type": "Feature", "properties": {"norad_id": 66468, "name": "STARLINK-35331", "group": "last-30-days", "lat": -35.11061509896911, "lon": -1.3264677220881709, "alt_km": 380.58451702990624, "timestamp": "2025-12-02T17:49:10.799576+00:00", "meta": {"OBJECT_NAME": "STARLINK-35331", "OBJECT_ID": "2025-262N", "EPOCH": "2025-12-02T12:00:05.998752", "MEAN_MOTION": 15.64285711, "ECCENTRICITY": 0.0001694, "INCLINATION": 42.9991, "RA_OF_ASC_NODE": 131.1349, "ARG_OF_PERICENTER": 267.5379, "MEAN_ANOMALY": 43.6444, "EPHEMERIS_TYPE": 0, "CLASSIFICATION_TYPE": "U", "NORAD_CAT_ID": 66468, "ELEMENT_SET_NO": 999, "REV_AT_EPOCH": 399, "BSTAR": -0.024312, "MEAN_MOTION_DOT": -0.02086615, "MEAN_MOTION_DDOT": 0}, "tle": {"line1": "1 66468U 25262N   25336.50006943 -.02086615  00000+0 -24312-1 0  9995", "line2": "2 66468  42.9991 131.1349 0001694 267.5379  43.6444 15.64285711  3993"}}, "geometry": {"type": "Point", "coordinates": [-1.3264677220881709, -35.11061509896911]}}, {"type": "Feature", "properties": {"norad_id": 66469, "name": "STARLINK-35451", "group": "last-30-days", "lat": -37.513103689657044, "lon": 5.146468935923848, "alt_km": 380.6250038740227, "timestamp": "2025-12-02T17:49:10.799586+00:00", "meta": {"OBJECT_NAME": "STARLINK-35451", "OBJECT_ID": "2025-262P", "EPOCH": "2025-12-02T12:00:05.998752", "MEAN_MOTION": 15.64299326, "ECCENTRICITY": 0.0001694, "INCLINATION": 42.9994, "RA_OF_ASC_NODE": 131.1199, "ARG_OF_PERICENTER": 265.8538, "MEAN_ANOMALY": 51.0797, "EPHEMERIS_TYPE": 0, "CLASSIFICATION_TYPE": "U", "NORAD_CAT_ID": 66469, "ELEMENT_SET_NO": 999, "REV_AT_EPOCH": 399, "BSTAR": -0.024593, "MEAN_MOTION_DOT": -0.02108584, "MEAN_MOTION_DDOT": 0}, "tle": {"line1": "1 66469U 25262P   25336.50006943 -.02108584  00000+0 -24593-1 0  9997", "line2": "2 66469  42.9994 131.1199 0001694 265.8538  51.0797 15.64299326  3999"}}, "geometry": {"type": "Point", "coordinates": [5.146468935923848, -37.513103689657044]}}, {"type": "Feature", "properties": {"norad_id": 66470, "name": "STARLINK-35655", "group": "last-30-days", "lat": -35.95243902458157, "lon": 0.7927795815518286, "alt_km": 380.6265529297825, "timestamp": "2025-12-02T17:49:10.799596+00:00", "meta": {"OBJECT_NAME": "STARLINK-35655", "OBJECT_ID": "2025-262Q", "EPOCH": "2025-12-02T12:00:05.998752", "MEAN_MOTION": 15.64300162, "ECCENTRICITY": 0.0001625, "INCLINATION": 42.9993, "RA_OF_ASC_NODE": 131.1301, "ARG_OF_PERICENTER": 265.7884, "MEAN_ANOMALY": 47.3111, "EPHEMERIS_TYPE": 0, "CLASSIFICATION_TYPE": "U", "NORAD_CAT_ID": 66470, "ELEMENT_SET_NO": 999, "REV_AT_EPOCH": 399, "BSTAR": -0.024611, "MEAN_MOTION_DOT": -0.02109922, "MEAN_MOTION_DDOT": 0}, "tle": {"line1": "1 66470U 25262Q   25336.50006943 -.02109922  00000+0 -24611-1 0  9997", "line2": "2 66470  42.9993 131.1301 0001625 265.7884  47.3111 15.64300162  3991"}}, "geometry": {"type": "Point", "coordinates": [0.7927795815518286, -35.95243902458157]}}, {"type": "Feature", "properties": {"norad_id": 66471, "name": "STARLINK-35569", "group": "last-30-days", "lat": -36.75296248273007, "lon": 2.948997577753205, "alt_km": 380.5947537742695, "timestamp": "2025-12-02T17:49:10.799606+00:00", "meta": {"OBJECT_NAME": "STARLINK-35569", "OBJECT_ID": "2025-262R", "EPOCH": "2025-12-02T12:00:05.998752", "MEAN_MOTION": 15.64299318, "ECCENTRICITY": 0.0001643, "INCLINATION": 42.9992, "RA_OF_ASC_NODE": 131.1254, "ARG_OF_PERICENTER": 261.7561, "MEAN_ANOMALY": 53.2596, "EPHEMERIS_TYPE": 0, "CLASSIFICATION_TYPE": "U", "NORAD_CAT_ID": 66471, "ELEMENT_SET_NO": 999, "REV_AT_EPOCH": 399, "BSTAR": -0.024576, "MEAN_MOTION_DOT": -0.02107268, "MEAN_MOTION_DDOT": 0}, "tle": {"line1": "1 66471U 25262R   25336.50006943 -.02107268  00000+0 -24576-1 0  9999", "line2": "2 66471  42.9992 131.1254 0001643 261.7561  53.2596 15.64299318  3999"}}, "geometry": {"type": "Point", "coordinates": [2.948997577753205, -36.75296248273007]}}, {"type": "Feature", "properties": {"norad_id": 66472, "name": "STARLINK-35567", "group": "last-30-days", "lat": -38.23156517727793, "lon": 7.390956863238664, "alt_km": 380.73523064956044, "timestamp": "2025-12-02T17:49:10.799618+00:00", "meta": {"OBJECT_NAME": "STARLINK-35567", "OBJECT_ID": "2025-262S", "EPOCH": "2025-12-02T12:00:05.998752", "MEAN_MOTION": 15.64297257, "ECCENTRICITY": 0.0001617, "INCLINATION": 42.9991, "RA_OF_ASC_NODE": 131.1156, "ARG_OF_PERICENTER": 269.7206, "MEAN_ANOMALY": 49.1327, "EPHEMERIS_TYPE": 0, "CLASSIFICATION_TYPE": "U", "NORAD_CAT_ID": 66472, "ELEMENT_SET_NO": 999, "REV_AT_EPOCH": 399, "BSTAR": -0.024592, "MEAN_MOTION_DOT": -0.02108263, "MEAN_MOTION_DDOT": 0}, "tle": {"line1": "1 66472U 25262S   25336.50006943 -.02108263  00000+0 -24592-1 0  9994", "line2": "2 66472  42.9991 131.1156 0001617 269.7206  49.1327 15.64297257  3991"}}, "geometry": {"type": "Point", "coordinates": [7.390956863238664, -38.23156517727793]}}, {"type": "Feature", "properties": {"norad_id": 66473, "name": "STARLINK-35568", "group": "last-30-days", "lat": -38.90433701616414, "lon": 9.669779996006342, "alt_km": 380.6305657172825, "timestamp": "2025-12-02T17:49:10.799628+00:00", "meta": {"OBJECT_NAME": "STARLINK-35568", "OBJECT_ID": "2025-262T", "EPOCH": "2025-12-02T12:00:05.998752", "MEAN_MOTION": 15.64288126, "ECCENTRICITY": 0.0001742, "INCLINATION": 42.9992, "RA_OF_ASC_NODE": 131.1104, "ARG_OF_PERICENTER": 266.5287, "MEAN_ANOMALY": 54.2371, "EPHEMERIS_TYPE": 0, "CLASSIFICATION_TYPE": "U", "NORAD_CAT_ID": 66473, "ELEMENT_SET_NO": 999, "REV_AT_EPOCH": 399, "BSTAR": -0.02434, "MEAN_MOTION_DOT": -0.02088877, "MEAN_MOTION_DDOT": 0}, "tle": {"line1": "1 66473U 25262T   25336.50006943 -.02088877  00000+0 -24340-1 0  9994", "line2": "2 66473  42.9992 131.1104 0001742 266.5287  54.2371 15.64288126  3990"}}, "geometry": {"type": "Point", "coordinates": [9.669779996006342, -38.90433701616414]}}, {"type": "Feature", "properties": {"norad_id": 66474, "name": "STARLINK-35620", "group": "last-30-days", "lat": -39.535455058247564, "lon": 12.004802781995608, "alt_km": 380.76855715344664, "timestamp": "2025-12-02T17:49:10.799640+00:00", "meta": {"OBJECT_NAME": "STARLINK-35620", "OBJECT_ID": "2025-262U", "EPOCH": "2025-12-02T12:00:05.998752", "MEAN_MOTION": 15.64297121, "ECCENTRICITY": 0.0001554, "INCLINATION": 42.9995, "RA_OF_ASC_NODE": 131.1057, "ARG_OF_PERICENTER": 267.0031, "MEAN_ANOMALY": 55.6796, "EPHEMERIS_TYPE": 0, "CLASSIFICATION_TYPE": "U", "NORAD_CAT_ID": 66474, "ELEMENT_SET_NO": 999, "REV_AT_EPOCH": 399, "BSTAR": -0.024523, "MEAN_MOTION_DOT": -0.02103055, "MEAN_MOTION_DDOT": 0}, "tle": {"line1": "1 66474U 25262U   25336.50006943 -.02103055  00000+0 -24523-1 0  9994", "line2": "2 66474  42.9995 131.1057 0001554 267.0031  55.6796 15.64297121  3996"}}, "geometry": {"type": "Point", "coordinates": [12.004802781995608, -39.535455058247564]}}, {"type": "Feature", "properties": {"norad_id": 66475, "name": "STARLINK-35538", "group": "last-30-days", "lat": -40.11756697457274, "lon": 14.379659089026918, "alt_km": 380.7262416690719, "timestamp": "2025-12-02T17:49:10.799652+00:00", "meta": {"OBJECT_NAME": "STARLINK-35538", "OBJECT_ID": "2025-262V", "EPOCH": "2025-12-02T12:00:05.998752", "MEAN_MOTION": 15.64299796, "ECCENTRICITY": 0.0001633, "INCLINATION": 42.9989, "RA_OF_ASC_NODE": 131.1012, "ARG_OF_PERICENTER": 266.1492, "MEAN_ANOMALY": 58.4527, "EPHEMERIS_TYPE": 0, "CLASSIFICATION_TYPE": "U", "NORAD_CAT_ID": 66475, "ELEMENT_SET_NO": 999, "REV_AT_EPOCH": 399, "BSTAR": -0.024603, "MEAN_MOTION_DOT": -0.02109284, "MEAN_MOTION_DDOT": 0}, "tle": {"line1": "1 66475U 25262V   25336.50006943 -.02109284  00000+0 -24603-1 0  9994", "line2": "2 66475  42.9989 131.1012 0001633 266.1492  58.4527 15.64299796  3993"}}, "geometry": {"type": "Point", "coordinates": [14.379659089026918, -40.11756697457274]}}]}